{
  "type": "FeatureCollection",
  "features": [
    {
      "type": "Feature",
      "properties": {
        "norad_id": 29486,
        "name": "GPS BIIRM-2 (PRN 31)",
        "group": "gps-ops",
        "lat": -31.708516208548325,
        "lon": 132.9083188751476,
        "alt_km": 20193.832202106572,
        "timestamp": "2025-12-08T23:34:04.228004+00:00",
        "meta_object_name": "GPS BIIRM-2 (PRN 31)",
        "meta_object_id": "2006-042A",
        "meta_epoch": "2025-12-08T13:17:33.124704",
        "meta_mean_motion": 2.00554246,
        "meta_eccentricity": 0.01073643,
        "meta_inclination": 54.6936,
        "meta_ra_of_asc_node": 158.9068,
        "meta_arg_of_pericenter": 51.8598,
        "meta_mean_anomaly": 320.1374,
        "meta_ephemeris_type": 0,
        "meta_classification_type": "U",
        "meta_norad_cat_id": 29486,
        "meta_element_set_no": 999,
        "meta_rev_at_epoch": 14057,
        "meta_bstar": 0,
        "meta_mean_motion_dot": 6e-07,
        "meta_mean_motion_ddot": 0,
        "tle_line1": "1 29486U 06042A   25342.55385561  .00000060  00000+0  00000+0 0  9999",
        "tle_line2": "2 29486  54.6936 158.9068 0107364  51.8598 320.1374  2.00554246140573"
      },
      "geometry": {
        "type": "Point",
        "coordinates": [
          132.9083188751476,
          -31.708516208548325
        ]
      }
    },
    {
      "type": "Feature",
      "properties": {
        "norad_id": 29601,
        "name": "GPS BIIRM-3 (PRN 12)",
        "group": "gps-ops",
        "lat": 14.257033853574354,
        "lon": -128.18380856125947,
        "alt_km": 20097.801714386223,
        "timestamp": "2025-12-08T23:34:04.228017+00:00",
        "meta_object_name": "GPS BIIRM-3 (PRN 12)",
        "meta_object_id": "2006-052A",
        "meta_epoch": "2025-12-07T23:03:27.935136",
        "meta_mean_motion": 2.00573134,
        "meta_eccentricity": 0.00876554,
        "meta_inclination": 54.9714,
        "meta_ra_of_asc_node": 221.5879,
        "meta_arg_of_pericenter": 87.3887,
        "meta_mean_anomaly": 273.7008,
        "meta_ephemeris_type": 0,
        "meta_classification_type": "U",
        "meta_norad_cat_id": 29601,
        "meta_element_set_no": 999,
        "meta_rev_at_epoch": 13957,
        "meta_bstar": 0,
        "meta_mean_motion_dot": 2.2e-07,
        "meta_mean_motion_ddot": 0,
        "tle_line1": "1 29601U 06052A   25341.96073999  .00000022  00000+0  00000+0 0  9990",
        "tle_line2": "2 29601  54.9714 221.5879 0087655  87.3887 273.7008  2.00573134139573"
      },
      "geometry": {
        "type": "Point",
        "coordinates": [
          -128.18380856125947,
          14.257033853574354
        ]
      }
    },
    {
      "type": "Feature",
      "properties": {
        "norad_id": 32260,
        "name": "GPS BIIRM-4 (PRN 15)",
        "group": "gps-ops",
        "lat": 15.678579790922333,
        "lon": -103.8679559316176,
        "alt_km": 20062.872957316995,
        "timestamp": "2025-12-08T23:34:04.228029+00:00",
        "meta_object_name": "GPS BIIRM-4 (PRN 15)",
        "meta_object_id": "2007-047A",
        "meta_epoch": "2025-12-07T18:25:34.370688",
        "meta_mean_motion": 2.00564615,
        "meta_eccentricity": 0.01643014,
        "meta_inclination": 53.9519,
        "meta_ra_of_asc_node": 87.9639,
        "meta_arg_of_pericenter": 85.1876,
        "meta_mean_anomaly": 276.6737,
        "meta_ephemeris_type": 0,
        "meta_classification_type": "U",
        "meta_norad_cat_id": 32260,
        "meta_element_set_no": 999,
        "meta_rev_at_epoch": 13297,
        "meta_bstar": 0,
        "meta_mean_motion_dot": -1.8e-07,
        "meta_mean_motion_ddot": 0,
        "tle_line1": "1 32260U 07047A   25341.76775892 -.00000018  00000+0  00000+0 0  9995",
        "tle_line2": "2 32260  53.9519  87.9639 0164301  85.1876 276.6737  2.00564615132978"
      },
      "geometry": {
        "type": "Point",
        "coordinates": [
          -103.8679559316176,
          15.678579790922333
        ]
      }
    },
    {
      "type": "Feature",
      "properties": {
        "norad_id": 32384,
        "name": "GPS BIIRM-5 (PRN 29)",
        "group": "gps-ops",
        "lat": -51.35798499394023,
        "lon": -138.59034216512705,
        "alt_km": 20236.140629661233,
        "timestamp": "2025-12-08T23:34:04.228041+00:00",
        "meta_object_name": "GPS BIIRM-5 (PRN 29)",
        "meta_object_id": "2007-062A",
        "meta_epoch": "2025-12-08T07:46:47.506944",
        "meta_mean_motion": 2.00576984,
        "meta_eccentricity": 0.00322211,
        "meta_inclination": 55.1861,
        "meta_ra_of_asc_node": 281.823,
        "meta_arg_of_pericenter": 162.5952,
        "meta_mean_anomaly": 10.0568,
        "meta_ephemeris_type": 0,
        "meta_classification_type": "U",
        "meta_norad_cat_id": 32384,
        "meta_element_set_no": 999,
        "meta_rev_at_epoch": 13168,
        "meta_bstar": 0,
        "meta_mean_motion_dot": -4.5e-07,
        "meta_mean_motion_ddot": 0,
        "tle_line1": "1 32384U 07062A   25342.32416096 -.00000045  00000+0  00000+0 0  9990",
        "tle_line2": "2 32384  55.1861 281.8230 0032221 162.5952  10.0568  2.00576984131682"
      },
      "geometry": {
        "type": "Point",
        "coordinates": [
          -138.59034216512705,
          -51.35798499394023
        ]
      }
    },
    {
      "type": "Feature",
      "properties": {
        "norad_id": 32711,
        "name": "GPS BIIRM-6 (PRN 07)",
        "group": "gps-ops",
        "lat": -24.730266571113724,
        "lon": -3.2670062671973783,
        "alt_km": 19736.739585536965,
        "timestamp": "2025-12-08T23:34:04.228053+00:00",
        "meta_object_name": "GPS BIIRM-6 (PRN 07)",
        "meta_object_id": "2008-012A",
        "meta_epoch": "2025-12-08T04:28:46.599744",
        "meta_mean_motion": 2.00565366,
        "meta_eccentricity": 0.02022567,
        "meta_inclination": 54.4765,
        "meta_ra_of_asc_node": 157.5547,
        "meta_arg_of_pericenter": 244.8969,
        "meta_mean_anomaly": 112.9984,
        "meta_ephemeris_type": 0,
        "meta_classification_type": "U",
        "meta_norad_cat_id": 32711,
        "meta_element_set_no": 999,
        "meta_rev_at_epoch": 12992,
        "meta_bstar": 0,
        "meta_mean_motion_dot": 5.8e-07,
        "meta_mean_motion_ddot": 0,
        "tle_line1": "1 32711U 08012A   25342.18665046  .00000058  00000+0  00000+0 0  9998",
        "tle_line2": "2 32711  54.4765 157.5547 0202256 244.8969 112.9984  2.00565366129920"
      },
      "geometry": {
        "type": "Point",
        "coordinates": [
          -3.2670062671973783,
          -24.730266571113724
        ]
      }
    },
    {
      "type": "Feature",
      "properties": {
        "norad_id": 35752,
        "name": "GPS BIIRM-8 (PRN 05)",
        "group": "gps-ops",
        "lat": -41.16498556524941,
        "lon": -109.05475351837808,
        "alt_km": 20306.946970278794,
        "timestamp": "2025-12-08T23:34:04.228066+00:00",
        "meta_object_name": "GPS BIIRM-8 (PRN 05)",
        "meta_object_id": "2009-043A",
        "meta_epoch": "2025-12-08T03:13:53.099904",
        "meta_mean_motion": 2.00565854,
        "meta_eccentricity": 0.00519295,
        "meta_inclination": 56.0878,
        "meta_ra_of_asc_node": 34.9648,
        "meta_arg_of_pericenter": 81.9835,
        "meta_mean_anomaly": 258.3784,
        "meta_ephemeris_type": 0,
        "meta_classification_type": "U",
        "meta_norad_cat_id": 35752,
        "meta_element_set_no": 999,
        "meta_rev_at_epoch": 11952,
        "meta_bstar": 0,
        "meta_mean_motion_dot": -8e-07,
        "meta_mean_motion_ddot": 0,
        "tle_line1": "1 35752U 09043A   25342.13464236 -.00000080  00000+0  00000+0 0  9990",
        "tle_line2": "2 35752  56.0878  34.9648 0051929  81.9835 258.3784  2.00565854119522"
      },
      "geometry": {
        "type": "Point",
        "coordinates": [
          -109.05475351837808,
          -41.16498556524941
        ]
      }
    },
    {
      "type": "Feature",
      "properties": {
        "norad_id": 36585,
        "name": "GPS BIIF-1  (PRN 25)",
        "group": "gps-ops",
        "lat": -8.714092584236035,
        "lon": -150.08794619840154,
        "alt_km": 20098.08181306564,
        "timestamp": "2025-12-08T23:34:04.228078+00:00",
        "meta_object_name": "GPS BIIF-1  (PRN 25)",
        "meta_object_id": "2010-022A",
        "meta_epoch": "2025-12-08T05:43:48.381888",
        "meta_mean_motion": 2.00552915,
        "meta_eccentricity": 0.01259265,
        "meta_inclination": 54.3009,
        "meta_ra_of_asc_node": 216.2555,
        "meta_arg_of_pericenter": 65.0249,
        "meta_mean_anomaly": 109.07,
        "meta_ephemeris_type": 0,
        "meta_classification_type": "U",
        "meta_norad_cat_id": 36585,
        "meta_element_set_no": 999,
        "meta_rev_at_epoch": 11376,
        "meta_bstar": 0,
        "meta_mean_motion_dot": 2.3e-07,
        "meta_mean_motion_ddot": 0,
        "tle_line1": "1 36585U 10022A   25342.23875442  .00000023  00000+0  00000+0 0  9996",
        "tle_line2": "2 36585  54.3009 216.2555 0125926  65.0249 109.0700  2.00552915113761"
      },
      "geometry": {
        "type": "Point",
        "coordinates": [
          -150.08794619840154,
          -8.714092584236035
        ]
      }
    }
  ]
}